{"type": "FeatureCollection", "features": [{"type": "Feature", "properties": {"norad_id": 66313, "name": "YAOGAN-46", "group": "last-30-days", "lat": 20.01505985093474, "lon": -173.97264202400703, "alt_km": 7390.298615917313, "timestamp": "2025-12-03T04:52:28.418548+00:00", "meta": {"OBJECT_NAME": "YAOGAN-46", "OBJECT_ID": "2025-250A", "EPOCH": "2025-11-23T01:44:02.775840", "MEAN_MOTION": 5.35115916, "ECCENTRICITY": 0.00492374, "INCLINATION": 20.0335, "RA_OF_ASC_NODE": 104.8243, "ARG_OF_PERICENTER": 135.6954, "MEAN_ANOMALY": 224.7061, "EPHEMERIS_TYPE": 0, "CLASSIFICATION_TYPE": "U", "NORAD_CAT_ID": 66313, "ELEMENT_SET_NO": 999, "REV_AT_EPOCH": 114, "BSTAR": 0, "MEAN_MOTION_DOT": -7e-08, "MEAN_MOTION_DDOT": 0}, "tle": {"line1": "1 66313U 25250A   25327.07225435 -.00000007  00000+0  00000+0 0  9996", "line2": "2 66313  20.0335 104.8243 0049237 135.6954 224.7061  5.35115916  1148"}}, "geometry": {"type": "Point", "coordinates": [-173.97264202400703, 20.01505985093474]}}, {"type": "Feature", "properties": {"norad_id": 66315, "name": "SENTINEL-1D", "group": "last-30-days", "lat": 49.875039198233544, "lon": -27.48175608142533, "alt_km": 689.3224813344432, "timestamp": "2025-12-03T04:52:28.418612+00:00", "meta": {"OBJECT_NAME": "SENTINEL-1D", "OBJECT_ID": "2025-251A", "EPOCH": "2025-12-02T18:46:26.832000", "MEAN_MOTION": 14.59910287, "ECCENTRICITY": 0.0002602, "INCLINATION": 98.1924, "RA_OF_ASC_NODE": 341.9443, "ARG_OF_PERICENTER": 154.932, "MEAN_ANOMALY": 205.2007, "EPHEMERIS_TYPE": 0, "CLASSIFICATION_TYPE": "U", "NORAD_CAT_ID": 66315, "ELEMENT_SET_NO": 999, "REV_AT_EPOCH": 408, "BSTAR": 7.2936e-05, "MEAN_MOTION_DOT": 3.03e-06, "MEAN_MOTION_DDOT": 0}, "tle": {"line1": "1 66315U 25251A   25336.78225500  .00000303  00000+0  72936-4 0  9990", "line2": "2 66315  98.1924 341.9443 0002602 154.9320 205.2007 14.59910287  4082"}}, "geometry": {"type": "Point", "coordinates": [-27.48175608142533, 49.875039198233544]}}, {"type": "Feature", "properties": {"norad_id": 66316, "name": "QPS-SAR-14 (YACHIHOKO-I)", "group": "last-30-days", "lat": 13.666634958282684, "lon": 143.34559222016225, "alt_km": 570.1214509589745, "timestamp": "2025-12-03T04:52:28.418630+00:00", "meta": {"OBJECT_NAME": "QPS-SAR-14 (YACHIHOKO-I)", "OBJECT_ID": "2025-252A", "EPOCH": "2025-12-02T19:10:42.259872", "MEAN_MOTION": 14.9753066, "ECCENTRICITY": 0.0006867, "INCLINATION": 42.003, "RA_OF_ASC_NODE": 129.8833, "ARG_OF_PERICENTER": 81.8848, "MEAN_ANOMALY": 278.2756, "EPHEMERIS_TYPE": 0, "CLASSIFICATION_TYPE": "U", "NORAD_CAT_ID": 66316, "ELEMENT_SET_NO": 999, "REV_AT_EPOCH": 404, "BSTAR": 0.00065545, "MEAN_MOTION_DOT": 7.602e-05, "MEAN_MOTION_DDOT": 0}, "tle": {"line1": "1 66316U 25252A   25336.79910023  .00007602  00000+0  65545-3 0  9990", "line2": "2 66316  42.0030 129.8833 0006867  81.8848 278.2756 14.97530660  4047"}}, "geometry": {"type": "Point", "coordinates": [143.34559222016225, 13.666634958282684]}}, {"type": "Feature", "properties": {"norad_id": 66317, "name": "ELECTRON R/B", "group": "last-30-days", "lat": 41.95713660919004, "lon": -159.80721419685707, "alt_km": 190.89722990895734, "timestamp": "2025-12-03T04:52:28.418644+00:00", "meta": {"OBJECT_NAME": "ELECTRON R/B", "OBJECT_ID": "2025-252B", "EPOCH": "2025-12-02T16:34:05.009664", "MEAN_MOTION": 16.0533306, "ECCENTRICITY": 0.0095405, "INCLINATION": 41.9863, "RA_OF_ASC_NODE": 112.1675, "ARG_OF_PERICENTER": 66.2143, "MEAN_ANOMALY": 294.869, "EPHEMERIS_TYPE": 0, "CLASSIFICATION_TYPE": "U", "NORAD_CAT_ID": 66317, "ELEMENT_SET_NO": 999, "REV_AT_EPOCH": 423, "BSTAR": 0.0016884, "MEAN_MOTION_DOT": 0.02343617, "MEAN_MOTION_DDOT": 8.0902e-06}, "tle": {"line1": "1 66317U 25252B   25336.69033576  .02343617  80902-5  16884-2 0  9996", "line2": "2 66317  41.9863 112.1675 0095405  66.2143 294.8690 16.05333060  4238"}}, "geometry": {"type": "Point", "coordinates": [-159.80721419685707, 41.95713660919004]}}, {"type": "Feature", "properties": {"norad_id": 66319, "name": "STARLINK-35442", "group": "last-30-days", "lat": -1.7953447495545254, "lon": -137.24109459663876, "alt_km": 444.18469404228745, "timestamp": "2025-12-03T04:52:28.418656+00:00", "meta": {"OBJECT_NAME": "STARLINK-35442", "OBJECT_ID": "2025-253A", "EPOCH": "2025-12-02T20:00:03.000384", "MEAN_MOTION": 15.40672764, "ECCENTRICITY": 0.000132, "INCLINATION": 43.001, "RA_OF_ASC_NODE": 42.9624, "ARG_OF_PERICENTER": 276.2852, "MEAN_ANOMALY": 13.1059, "EPHEMERIS_TYPE": 0, "CLASSIFICATION_TYPE": "U", "NORAD_CAT_ID": 66319, "ELEMENT_SET_NO": 999, "REV_AT_EPOCH": 543, "BSTAR": 0.00042357, "MEAN_MOTION_DOT": 0.00017414, "MEAN_MOTION_DDOT": 0}, "tle": {"line1": "1 66319U 25253A   25336.83336806  .00017414  00000+0  42357-3 0  9998", "line2": "2 66319  43.0010  42.9624 0001320 276.2852  13.1059 15.40672764  5433"}}, "geometry": {"type": "Point", "coordinates": [-137.24109459663876, -1.7953447495545254]}}, {"type": "Feature", "properties": {"norad_id": 66320, "name": "STARLINK-34616", "group": "last-30-days", "lat": -29.359461256848427, "lon": 3.375270605496245, "alt_km": 416.31041011967045, "timestamp": "2025-12-03T04:52:28.418672+00:00", "meta": {"OBJECT_NAME": "STARLINK-34616", "OBJECT_ID": "2025-253B", "EPOCH": "2025-12-02T12:04:03.392256", "MEAN_MOTION": 15.5059712, "ECCENTRICITY": 0.00016197, "INCLINATION": 43.0005, "RA_OF_ASC_NODE": 44.6062, "ARG_OF_PERICENTER": 274.0056, "MEAN_ANOMALY": 86.0619, "EPHEMERIS_TYPE": 0, "CLASSIFICATION_TYPE": "U", "NORAD_CAT_ID": 66320, "ELEMENT_SET_NO": 999, "REV_AT_EPOCH": 542, "BSTAR": 0.0018491849, "MEAN_MOTION_DOT": 0.00109746, "MEAN_MOTION_DDOT": 0}, "tle": {"line1": "1 66320U 25253B   25336.50281704  .00109746  00000+0  18492-2 0  9992", "line2": "2 66320  43.0005  44.6062 0001619 274.0056  86.0619 15.50597120  5420"}}, "geometry": {"type": "Point", "coordinates": [3.375270605496245, -29.359461256848427]}}, {"type": "Feature", "properties": {"norad_id": 66321, "name": "STARLINK-34615", "group": "last-30-days", "lat": -42.91715887476733, "lon": -54.04036017049119, "alt_km": 387.67121977490933, "timestamp": "2025-12-03T04:52:28.418685+00:00", "meta": {"OBJECT_NAME": "STARLINK-34615", "OBJECT_ID": "2025-253C", "EPOCH": "2025-12-02T13:54:48.068928", "MEAN_MOTION": 15.60939775, "ECCENTRICITY": 0.00013382, "INCLINATION": 43, "RA_OF_ASC_NODE": 43.4433, "ARG_OF_PERICENTER": 262.6597, "MEAN_ANOMALY": 97.4115, "EPHEMERIS_TYPE": 0, "CLASSIFICATION_TYPE": "U", "NORAD_CAT_ID": 66321, "ELEMENT_SET_NO": 999, "REV_AT_EPOCH": 536, "BSTAR": -0.00091645051, "MEAN_MOTION_DOT": -0.00078559, "MEAN_MOTION_DDOT": 0}, "tle": {"line1": "1 66321U 25253C   25336.57972302 -.00078559  00000+0 -91645-3 0  9992", "line2": "2 66321  43.0000  43.4433 0001338 262.6597  97.4115 15.60939775  5363"}}, "geometry": {"type": "Point", "coordinates": [-54.04036017049119, -42.91715887476733]}}, {"type": "Feature", "properties": {"norad_id": 66322, "name": "STARLINK-35292", "group": "last-30-days", "lat": -25.960339662938594, "lon": -107.762394343872, "alt_km": 445.65360072007843, "timestamp": "2025-12-03T04:52:28.418698+00:00", "meta": {"OBJECT_NAME": "STARLINK-35292", "OBJECT_ID": "2025-253D", "EPOCH": "2025-12-02T16:00:03.000096", "MEAN_MOTION": 15.40663455, "ECCENTRICITY": 0.0001673, "INCLINATION": 43.001, "RA_OF_ASC_NODE": 43.832, "ARG_OF_PERICENTER": 283.7608, "MEAN_ANOMALY": 197.3251, "EPHEMERIS_TYPE": 0, "CLASSIFICATION_TYPE": "U", "NORAD_CAT_ID": 66322, "ELEMENT_SET_NO": 999, "REV_AT_EPOCH": 531, "BSTAR": 0.003769731, "MEAN_MOTION_DOT": 0.00160325, "MEAN_MOTION_DDOT": 0}, "tle": {"line1": "1 66322U 25253D   25336.66670139  .00160325  00000+0  37697-2 0  9993", "line2": "2 66322  43.0010  43.8320 0001673 283.7608 197.3251 15.40663455  5316"}}, "geometry": {"type": "Point", "coordinates": [-107.762394343872, -25.960339662938594]}}, {"type": "Feature", "properties": {"norad_id": 66323, "name": "STARLINK-35309", "group": "last-30-days", "lat": -20.34962601810591, "lon": 17.01840950638416, "alt_km": 415.16103355453015, "timestamp": "2025-12-03T04:52:28.418710+00:00", "meta": {"OBJECT_NAME": "STARLINK-35309", "OBJECT_ID": "2025-253E", "EPOCH": "2025-12-02T12:00:06.232032", "MEAN_MOTION": 15.50606545, "ECCENTRICITY": 0.00025205, "INCLINATION": 43.0006, "RA_OF_ASC_NODE": 44.5862, "ARG_OF_PERICENTER": 290.5206, "MEAN_ANOMALY": 69.5383, "EPHEMERIS_TYPE": 0, "CLASSIFICATION_TYPE": "U", "NORAD_CAT_ID": 66323, "ELEMENT_SET_NO": 999, "REV_AT_EPOCH": 534, "BSTAR": 0.0015326476, "MEAN_MOTION_DOT": 0.00090714, "MEAN_MOTION_DDOT": 0}, "tle": {"line1": "1 66323U 25253E   25336.50007213  .00090714  00000+0  15326-2 0  9993", "line2": "2 66323  43.0006  44.5862 0002520 290.5206  69.5383 15.50606545  5340"}}, "geometry": {"type": "Point", "coordinates": [17.01840950638416, -20.34962601810591]}}, {"type": "Feature", "properties": {"norad_id": 66324, "name": "STARLINK-35506", "group": "last-30-days", "lat": -23.80806400561774, "lon": 12.224060831901058, "alt_km": 414.54044462825914, "timestamp": "2025-12-03T04:52:28.418721+00:00", "meta": {"OBJECT_NAME": "STARLINK-35506", "OBJECT_ID": "2025-253F", "EPOCH": "2025-12-02T05:50:53.634048", "MEAN_MOTION": 15.50908788, "ECCENTRICITY": 0.0001609, "INCLINATION": 43.0002, "RA_OF_ASC_NODE": 46.1022, "ARG_OF_PERICENTER": 289.6052, "MEAN_ANOMALY": 70.4635, "EPHEMERIS_TYPE": 0, "CLASSIFICATION_TYPE": "U", "NORAD_CAT_ID": 66324, "ELEMENT_SET_NO": 999, "REV_AT_EPOCH": 530, "BSTAR": 0.0025528, "MEAN_MOTION_DOT": 0.00154211, "MEAN_MOTION_DDOT": 0}, "tle": {"line1": "1 66324U 25253F   25336.24367632  .00154211  00000+0  25528-2 0  9997", "line2": "2 66324  43.0002  46.1022 0001609 289.6052  70.4635 15.50908788  5309"}}, "geometry": {"type": "Point", "coordinates": [12.224060831901058, -23.80806400561774]}}]}